[
    {
        "Altitude(m)": 624792.7979345144,
        "Argument of Periapsis(deg)": 0.0,
        "Eccentricity": 0.0,
        "Inclination(deg)": 60.0,
        "Latitude(deg)": -59.147165978028205,
        "Longitude(deg)": -40.973482936933046,
        "Mean Anomaly(deg)": -98.18179999999997,
        "RAAN(deg)": 165.0,
        "Satellite Name": "Test1 742",
        "Satellite Number": 742,
        "Semi-Major Axis(m)": 6980739.136638005,
        "Time(s)": 0
    },
    {
        "Altitude(m)": 624842.1894500891,
        "Argument of Periapsis(deg)": 0.00010418945913296404,
        "Eccentricity": 0.0,
        "Inclination(deg)": 60.0,
        "Latitude(deg)": -59.28924820017243,
        "Longitude(deg)": -39.84397565202431,
        "Mean Anomaly(deg)": -97.56169385453812,
        "RAAN(deg)": 164.99957995086024,
        "Satellite Name": "Test1 742",
        "Satellite Number": 742,
        "Semi-Major Axis(m)": 6980739.136638005,
        "Time(s)": 10
    }
]